     2              NAVIGATION DATA                         RINEX VERSION / TYPE
CCRINEXN V1.6.0 UX  CDDIS               29-AUG-11 15:33     PGM / RUN BY / DATE 
IGS BROADCAST EPHEMERIS FILE                                COMMENT             
    0.9313D-08  0.2235D-07 -0.5960D-07 -0.1192D-06          ION ALPHA           
    0.9216D+05  0.1147D+06 -0.1311D+06 -0.5898D+06          ION BETA            
   -0.931322574616D-09-0.888178419700D-15   147456     1651 DELTA-UTC: A0,A1,T,W
    15                                                      LEAP SECONDS        
                                                            END OF HEADER       
29 11  8 28  6  0  0.0 0.234909821302D-03 0.306954461848D-11 0.000000000000D+00
    0.540000000000D+02-0.948750000000D+02 0.408124142866D-08-0.137731200756D+01
   -0.488758087158D-05 0.230309786275D-02 0.115577131510D-04 0.515374985123D+04
    0.216000000000D+05-0.279396772385D-07 0.265460156160D+01 0.577419996262D-07
    0.962476337677D+00 0.159062500000D+03-0.116051195306D+01-0.790925802377D-08
   -0.825034365993D-10 0.100000000000D+01 0.165100000000D+04 0.000000000000D+00
    0.200000000000D+01 0.000000000000D+00-0.931322574616D-08 0.540000000000D+02
    0.144180000000D+05 0.400000000000D+01 0.000000000000D+00 0.000000000000D+00
30 11  8 28  6  0  0.0 0.916509889066D-04-0.227373675443D-11 0.000000000000D+00
    0.880000000000D+02-0.115937500000D+02 0.485663086960D-08-0.305738235933D+01
   -0.473111867905D-06 0.117587110726D-01 0.745058059692D-06 0.515543727875D+04
    0.216000000000D+05 0.160187482834D-06 0.146636984325D+01 0.130385160446D-07
    0.956072794144D+00 0.362250000000D+03 0.157001944707D+01-0.842106505688D-08
   -0.707172313708D-10 0.100000000000D+01 0.165100000000D+04 0.000000000000D+00
    0.400000000000D+01 0.630000000000D+02-0.419095158577D-08 0.880000000000D+02
    0.144300000000D+05 0.000000000000D+00 0.000000000000D+00 0.000000000000D+00
31 11  8 28  6  0  0.0 0.132922083139D-03 0.557065504836D-11 0.000000000000D+00
    0.590000000000D+02 0.123156250000D+03 0.411231404485D-08-0.667663354630D+00
    0.645779073238D-05 0.763028266374D-02 0.786967575550D-05 0.515372249031D+04
    0.216000000000D+05-0.134110450745D-06 0.532049659330D+00 0.745058059692D-08
    0.980272709779D+00 0.242125000000D+03-0.953256578826D+00-0.804962141387D-08
    0.362157942524D-09 0.100000000000D+01 0.165100000000D+04 0.000000000000D+00
    0.200000000000D+01 0.000000000000D+00-0.130385160446D-07 0.590000000000D+02
    0.145080000000D+05 0.400000000000D+01 0.000000000000D+00 0.000000000000D+00
32 11  8 28  6  0  0.0-0.318521168083D-03-0.682121026330D-11 0.000000000000D+00
    0.350000000000D+02-0.321875000000D+02 0.549987211329D-08 0.473420990742D-01
   -0.176019966602D-05 0.121853313176D-01 0.466406345367D-05 0.515357829285D+04
    0.216000000000D+05 0.130385160446D-07-0.148690203162D+01-0.139698386192D-06
    0.953590118296D+00 0.289062500000D+03-0.746732824557D+00-0.877107986241D-08
   -0.226080848487D-09 0.100000000000D+01 0.165100000000D+04 0.000000000000D+00
    0.200000000000D+01 0.000000000000D+00-0.279396772385D-08 0.350000000000D+02
    0.144000000000D+05 0.000000000000D+00 0.000000000000D+00 0.000000000000D+00
 1 11  8 28  7 59 44.0-0.864919275045D-05-0.147792889038D-11 0.000000000000D+00
    0.300000000000D+01 0.624375000000D+02 0.452018828399D-08-0.950903799863D+00
    0.313483178616D-05 0.257534207776D-03 0.995956361294D-05 0.515367039108D+04
    0.287840000000D+05-0.931322574616D-08-0.263067287390D+01 0.651925802231D-07
    0.960551781169D+00 0.189125000000D+03 0.204916988625D+01-0.805033532878D-08
    0.733959143773D-09 0.100000000000D+01 0.165100000000D+04 0.000000000000D+00
    0.200000000000D+01 0.630000000000D+02 0.791624188423D-08 0.300000000000D+01
    0.280980000000D+05 0.400000000000D+01 0.000000000000D+00 0.000000000000D+00
 6 11  8 28  7 59 44.0-0.850236974657D-04 0.966338120634D-11 0.000000000000D+00
    0.280000000000D+02-0.104937500000D+03 0.467948080285D-08-0.224042886279D+01
   -0.531785190105D-05 0.669761130121D-02 0.105835497379D-04 0.515371867180D+04
    0.287840000000D+05-0.800937414169D-07 0.256013671485D+01 0.132247805595D-06
    0.936756965105D+00 0.163531250000D+03-0.699341730893D+00-0.819998469126D-08
   -0.228938104585D-09 0.100000000000D+01 0.165100000000D+04 0.000000000000D+00
    0.200000000000D+01 0.000000000000D+00-0.465661287308D-08 0.280000000000D+02
    0.216180000000D+05 0.400000000000D+01 0.000000000000D+00 0.000000000000D+00
16 11  8 28  7 59 44.0-0.194387510419D-03-0.227373675443D-11 0.000000000000D+00
    0.000000000000D+00-0.408125000000D+02 0.452125981099D-08-0.221478788799D+01
   -0.208057463169D-05 0.628232967574D-02 0.166520476341D-05 0.515386794090D+04
    0.287840000000D+05-0.596046447754D-07 0.160375232208D+01-0.968575477600D-07
    0.976958957485D+00 0.357125000000D+03-0.573914992492D-01-0.841392200357D-08
   -0.201794123078D-09 0.100000000000D+01 0.165100000000D+04 0.000000000000D+00
    0.200000000000D+01 0.000000000000D+00-0.977888703346D-08 0.000000000000D+00
    0.227160000000D+05 0.400000000000D+01 0.000000000000D+00 0.000000000000D+00
18 11  8 28  7 59 44.0 0.154482200742D-03 0.181898940355D-11 0.000000000000D+00
    0.230000000000D+02-0.200625000000D+02 0.581059917764D-08-0.164519286480D+01
   -0.929459929466D-06 0.127669847570D-01 0.279583036900D-05 0.515361581230D+04
    0.287840000000D+05 0.234693288803D-06-0.155986635380D+01 0.000000000000D+00
    0.931669058910D+00 0.304562500000D+03-0.222113405003D+01-0.873464954750D-08
    0.457161899771D-10 0.100000000000D+01 0.165100000000D+04 0.000000000000D+00
    0.200000000000D+01 0.000000000000D+00-0.107102096081D-07 0.230000000000D+02
    0.216180000000D+05 0.400000000000D+01 0.000000000000D+00 0.000000000000D+00
20 11  8 28  7 59 44.0 0.522374175489D-04 0.454747350886D-12 0.000000000000D+00
    0.130000000000D+02-0.205937500000D+02 0.591346038803D-08-0.124046068649D+01
   -0.882893800735D-06 0.449676101562D-02 0.355765223503D-05 0.515359332657D+04
    0.287840000000D+05-0.186264514923D-08-0.161378058309D+01 0.102445483208D-06
    0.931910604240D+00 0.297968750000D+03 0.127285722679D+01-0.886608386708D-08
   -0.639312353057D-10 0.100000000000D+01 0.165100000000D+04 0.000000000000D+00
    0.200000000000D+01 0.000000000000D+00-0.745058059692D-08 0.130000000000D+02
    0.241320000000D+05 0.400000000000D+01 0.000000000000D+00 0.000000000000D+00
31 11  8 28  7 59 44.0 0.132962595671D-03 0.557065504836D-11 0.000000000000D+00
    0.130000000000D+02 0.109468750000D+03 0.405409744086D-08 0.380231791003D+00
    0.566057860851D-05 0.763297313824D-02 0.859238207340D-05 0.515372773743D+04
    0.287840000000D+05-0.726431608200D-07 0.531992039375D+00-0.931322574615D-07
    0.980274917322D+00 0.227781250000D+03-0.953339520429D+00-0.806105006081D-08
    0.297869550319D-09 0.100000000000D+01 0.165100000000D+04 0.000000000000D+00
    0.200000000000D+01 0.000000000000D+00-0.130385160446D-07 0.130000000000D+02
    0.285300000000D+05 0.000000000000D+00 0.000000000000D+00 0.000000000000D+00
 2 11  8 28  8  0  0.0 0.353301875293D-03 0.170530256582D-11 0.000000000000D+00
    0.410000000000D+02 0.496875000000D+02 0.495877798158D-08 0.185171193334D+01
    0.259093940258D-05 0.104136295850D-01 0.105928629637D-04 0.515380868912D+04
    0.288000000000D+05-0.428408384323D-07-0.263851316830D+01 0.203028321266D-06
    0.939160969607D+00 0.158625000000D+03-0.294772210057D+01-0.831213194795D-08
    0.670027909352D-09 0.100000000000D+01 0.165100000000D+04 0.000000000000D+00
    0.200000000000D+01 0.000000000000D+00-0.172294676304D-07 0.410000000000D+02
    0.243000000000D+05 0.000000000000D+00 0.000000000000D+00 0.000000000000D+00
 3 11  8 28  8  0  0.0 0.760663766414D-03 0.500222085975D-11 0.000000000000D+00
    0.850000000000D+02-0.123000000000D+03 0.484448747784D-08 0.204781176431D+01
   -0.657141208649D-05 0.147211997537D-01 0.962987542152D-05 0.515368215752D+04
    0.288000000000D+05 0.000000000000D+00 0.248575240977D+01-0.311061739922D-06
    0.929634862544D+00 0.179000000000D+03 0.112460775359D+01-0.825427282081D-08
   -0.292869339891D-09 0.100000000000D+01 0.165100000000D+04 0.000000000000D+00
    0.280000000000D+01 0.000000000000D+00-0.465661287308D-08 0.850000000000D+02
    0.216180000000D+05 0.400000000000D+01 0.000000000000D+00 0.000000000000D+00
 4 11  8 28  8  0  0.0 0.214419793338D-03 0.111413100967D-10 0.000000000000D+00
    0.270000000000D+02 0.621250000000D+02 0.502413784694D-08-0.118073279442D+01
    0.340677797794D-05 0.972883508075D-02 0.966899096966D-05 0.515369495773D+04
    0.288000000000D+05 0.275671482086D-06-0.262127407436D+01 0.502914190292D-07
    0.938231696248D+00 0.173343750000D+03 0.753542146455D+00-0.830606026646D-08
    0.792890169915D-09 0.100000000000D+01 0.165100000000D+04 0.000000000000D+00
    0.200000000000D+01 0.000000000000D+00-0.651925802231D-08 0.270000000000D+02
    0.222000000000D+05 0.000000000000D+00 0.000000000000D+00 0.000000000000D+00
 5 11  8 28  8  0  0.0-0.210192520171D-03-0.534328137292D-11 0.000000000000D+00
    0.450000000000D+02-0.175625000000D+02 0.543558355673D-08-0.234789169278D+01
   -0.104121863842D-05 0.235009740572D-02 0.408850610256D-05 0.515372843552D+04
    0.288000000000D+05-0.335276126862D-07-0.157603148740D+01-0.465661287308D-07
    0.952860779025D+00 0.300125000000D+03 0.143307120037D+00-0.856785688563D-08
   -0.660741808263D-10 0.100000000000D+01 0.165100000000D+04 0.000000000000D+00
    0.200000000000D+01 0.000000000000D+00-0.102445483208D-07 0.450000000000D+02
    0.216000000000D+05 0.000000000000D+00 0.000000000000D+00 0.000000000000D+00
